[{"OBJECT_NAME":"STARLINK-3896","OBJECT_ID":"2022-049F","EPOCH":"2026-03-09T05:37:40.826784","MEAN_MOTION":15.08830227,"ECCENTRICITY":0.00013403,"INCLINATION":53.2162,"RA_OF_ASC_NODE":71.1643,"ARG_OF_PERICENTER":88.6159,"MEAN_ANOMALY":271.4987,"EPHEMERIS_TYPE":0,"CLASSIFICATION_TYPE":"U","NORAD_CAT_ID":52456,"ELEMENT_SET_NO":999,"REV_AT_EPOCH":21204,"BSTAR":-0.00016661055,"MEAN_MOTION_DOT":-2.938e-5,"MEAN_MOTION_DDOT":0},{"OBJECT_NAME":"THOR ABLESTAR DEB","OBJECT_ID":"1961-015HM","EPOCH":"2026-03-09T12:53:31.788672","MEAN_MOTION":15.12609006,"ECCENTRICITY":0.0020802,"INCLINATION":66.4912,"RA_OF_ASC_NODE":108.7707,"ARG_OF_PERICENTER":275.236,"MEAN_ANOMALY":209.827,"EPHEMERIS_TYPE":0,"CLASSIFICATION_TYPE":"U","NORAD_CAT_ID":660,"ELEMENT_SET_NO":999,"REV_AT_EPOCH":37032,"BSTAR":0.0020976473,"MEAN_MOTION_DOT":0.00036985,"MEAN_MOTION_DDOT":0}]
